[{"OBJECT_NAME":"FENGYUN 1C DEB","OBJECT_ID":"1999-025VN","EPOCH":"2026-04-05T18:58:24.778848","MEAN_MOTION":13.8813438,"ECCENTRICITY":0.0120296,"INCLINATION":98.9993,"RA_OF_ASC_NODE":208.061,"ARG_OF_PERICENTER":230.7495,"MEAN_ANOMALY":282.8035,"EPHEMERIS_TYPE":0,"CLASSIFICATION_TYPE":"U","NORAD_CAT_ID":30205,"ELEMENT_SET_NO":999,"REV_AT_EPOCH":97220,"BSTAR":0.00044114,"MEAN_MOTION_DOT":5.15e-6,"MEAN_MOTION_DDOT":0},{"OBJECT_NAME":"FENGYUN 1C DEB","OBJECT_ID":"1999-025VP","EPOCH":"2026-04-05T10:35:26.174688","MEAN_MOTION":14.49645917,"ECCENTRICITY":0.01451423,"INCLINATION":98.2366,"RA_OF_ASC_NODE":97.0639,"ARG_OF_PERICENTER":47.8773,"MEAN_ANOMALY":313.4651,"EPHEMERIS_TYPE":0,"CLASSIFICATION_TYPE":"U","NORAD_CAT_ID":30206,"ELEMENT_SET_NO":999,"REV_AT_EPOCH":1047,"BSTAR":0.00070374258,"MEAN_MOTION_DOT":3.047e-5,"MEAN_MOTION_DDOT":0},{"OBJECT_NAME":"FENGYUN 1C DEB","OBJECT_ID":"1999-025VQ","EPOCH":"2026-04-05T06:56:40.042176","MEAN_MOTION":13.79202456,"ECCENTRICITY":0.0259685,"INCLINATION":98.5741,"RA_OF_ASC_NODE":200.3838,"ARG_OF_PERICENTER":201.0575,"MEAN_ANOMALY":181.5644,"EPHEMERIS_TYPE":0,"CLASSIFICATION_TYPE":"U","NORAD_CAT_ID":30207,"ELEMENT_SET_NO":999,"REV_AT_EPOCH":96628,"BSTAR":0.00032661,"MEAN_MOTION_DOT":3.92e-6,"MEAN_MOTION_DDOT":0},{"OBJECT_NAME":"FENGYUN 1C DEB","OBJECT_ID":"1999-025VR","EPOCH":"2026-04-05T14:03:21.782592","MEAN_MOTION":14.23815072,"ECCENTRICITY":0.0032655,"INCLINATION":98.5663,"RA_OF_ASC_NODE":98.5688,"ARG_OF_PERICENTER":299.8795,"MEAN_ANOMALY":176.5293,"EPHEMERIS_TYPE":0,"CLASSIFICATION_TYPE":"U","NORAD_CAT_ID":30208,"ELEMENT_SET_NO":999,"REV_AT_EPOCH":99457,"BSTAR":0.00061936,"MEAN_MOTION_DOT":1.382e-5,"MEAN_MOTION_DDOT":0},{"OBJECT_NAME":"FENGYUN 1C DEB","OBJECT_ID":"1999-025VS","EPOCH":"2026-04-05T05:37:58.156032","MEAN_MOTION":14.13070116,"ECCENTRICITY":0.0038043,"INCLINATION":98.7211,"RA_OF_ASC_NODE":94.0898,"ARG_OF_PERICENTER":276.5985,"MEAN_ANOMALY":146.3337,"EPHEMERIS_TYPE":0,"CLASSIFICATION_TYPE":"U","NORAD_CAT_ID":30209,"ELEMENT_SET_NO":999,"REV_AT_EPOCH":98809,"BSTAR":0.00038815,"MEAN_MOTION_DOT":6.86e-6,"MEAN_MOTION_DDOT":0},{"OBJECT_NAME":"FENGYUN 1C DEB","OBJECT_ID":"1999-025VT","EPOCH":"2026-04-05T02:18:09.624672","MEAN_MOTION":14.08526487,"ECCENTRICITY":0.00568255,"INCLINATION":99.173,"RA_OF_ASC_NODE":151.8502,"ARG_OF_PERICENTER":179.2873,"MEAN_ANOMALY":200.5474,"EPHEMERIS_TYPE":0,"CLASSIFICATION_TYPE":"U","NORAD_CAT_ID":30210,"ELEMENT_SET_NO":999,"REV_AT_EPOCH":98353,"BSTAR":0.00077117164,"MEAN_MOTION_DOT":1.298e-5,"MEAN_MOTION_DDOT":0},{"OBJECT_NAME":"FENGYUN 1C DEB","OBJECT_ID":"1999-025VV","EPOCH":"2026-04-05T14:21:04.511232","MEAN_MOTION":13.97189086,"ECCENTRICITY":0.0096728,"INCLINATION":99.4462,"RA_OF_ASC_NODE":329.1892,"ARG_OF_PERICENTER":288.9648,"MEAN_ANOMALY":70.1051,"EPHEMERIS_TYPE":0,"CLASSIFICATION_TYPE":"U","NORAD_CAT_ID":30212,"ELEMENT_SET_NO":999,"REV_AT_EPOCH":97815,"BSTAR":0.00030578,"MEAN_MOTION_DOT":3.97e-6,"MEAN_MOTION_DDOT":0},{"OBJECT_NAME":"FENGYUN 1C DEB","OBJECT_ID":"1999-025VW","EPOCH":"2026-04-05T04:12:51.335424","MEAN_MOTION":14.12264207,"ECCENTRICITY":0.00679991,"INCLINATION":99.1114,"RA_OF_ASC_NODE":178.4954,"ARG_OF_PERICENTER":285.3949,"MEAN_ANOMALY":102.9913,"EPHEMERIS_TYPE":0,"CLASSIFICATION_TYPE":"U","NORAD_CAT_ID":30213,"ELEMENT_SET_NO":999,"REV_AT_EPOCH":98116,"BSTAR":0.0017089842,"MEAN_MOTION_DOT":3.167e-5,"MEAN_MOTION_DDOT":0},{"OBJECT_NAME":"FENGYUN 1C DEB","OBJECT_ID":"1999-025VX","EPOCH":"2026-04-05T17:14:20.885856","MEAN_MOTION":14.31946102,"ECCENTRICITY":0.0021654,"INCLINATION":98.7116,"RA_OF_ASC_NODE":174.3112,"ARG_OF_PERICENTER":73.2988,"MEAN_ANOMALY":77.6164,"EPHEMERIS_TYPE":0,"CLASSIFICATION_TYPE":"U","NORAD_CAT_ID":30214,"ELEMENT_SET_NO":999,"REV_AT_EPOCH":99197,"BSTAR":0.0017157,"MEAN_MOTION_DOT":4.568e-5,"MEAN_MOTION_DDOT":0},{"OBJECT_NAME":"FENGYUN 1C DEB","OBJECT_ID":"1999-025WA","EPOCH":"2026-04-05T09:47:13.739424","MEAN_MOTION":14.25038211,"ECCENTRICITY":0.01401462,"INCLINATION":98.4463,"RA_OF_ASC_NODE":79.843,"ARG_OF_PERICENTER":126.7535,"MEAN_ANOMALY":234.6608,"EPHEMERIS_TYPE":0,"CLASSIFICATION_TYPE":"U","NORAD_CAT_ID":30217,"ELEMENT_SET_NO":999,"REV_AT_EPOCH":99692,"BSTAR":0.0003003404,"MEAN_MOTION_DOT":7.38e-6,"MEAN_MOTION_DDOT":0},{"OBJECT_NAME":"FENGYUN 1C DEB","OBJECT_ID":"1999-025WB","EPOCH":"2026-04-05T04:58:20.508384","MEAN_MOTION":14.30294299,"ECCENTRICITY":0.00665715,"INCLINATION":98.98,"RA_OF_ASC_NODE":193.1109,"ARG_OF_PERICENTER":284.1732,"MEAN_ANOMALY":105.2902,"EPHEMERIS_TYPE":0,"CLASSIFICATION_TYPE":"U","NORAD_CAT_ID":30218,"ELEMENT_SET_NO":999,"REV_AT_EPOCH":98730,"BSTAR":0.0024910208,"MEAN_MOTION_DOT":6.579e-5,"MEAN_MOTION_DDOT":0},{"OBJECT_NAME":"FENGYUN 1C DEB","OBJECT_ID":"1999-025WE","EPOCH":"2026-04-05T19:20:32.116128","MEAN_MOTION":14.46123113,"ECCENTRICITY":0.0145034,"INCLINATION":98.9475,"RA_OF_ASC_NODE":194.7934,"ARG_OF_PERICENTER":60.9082,"MEAN_ANOMALY":300.6543,"EPHEMERIS_TYPE":0,"CLASSIFICATION_TYPE":"U","NORAD_CAT_ID":30221,"ELEMENT_SET_NO":999,"REV_AT_EPOCH":1050,"BSTAR":0.00034164,"MEAN_MOTION_DOT":1.335e-5,"MEAN_MOTION_DDOT":0},{"OBJECT_NAME":"FENGYUN 1C DEB","OBJECT_ID":"1999-025WF","EPOCH":"2026-04-05T21:29:09.521376","MEAN_MOTION":14.04117683,"ECCENTRICITY":0.003853,"INCLINATION":98.8253,"RA_OF_ASC_NODE":131.1253,"ARG_OF_PERICENTER":77.2502,"MEAN_ANOMALY":102.5848,"EPHEMERIS_TYPE":0,"CLASSIFICATION_TYPE":"U","NORAD_CAT_ID":30222,"ELEMENT_SET_NO":999,"REV_AT_EPOCH":98440,"BSTAR":4.5857e-5,"MEAN_MOTION_DOT":3.1e-7,"MEAN_MOTION_DDOT":0},{"OBJECT_NAME":"FENGYUN 1C DEB","OBJECT_ID":"1999-025WH","EPOCH":"2026-04-05T17:07:33.007008","MEAN_MOTION":13.8997739,"ECCENTRICITY":0.0111784,"INCLINATION":99.4657,"RA_OF_ASC_NODE":141.5455,"ARG_OF_PERICENTER":38.5775,"MEAN_ANOMALY":84.6634,"EPHEMERIS_TYPE":0,"CLASSIFICATION_TYPE":"U","NORAD_CAT_ID":30224,"ELEMENT_SET_NO":999,"REV_AT_EPOCH":97324,"BSTAR":0.00043016,"MEAN_MOTION_DOT":5.12e-6,"MEAN_MOTION_DDOT":0},{"OBJECT_NAME":"FENGYUN 1C DEB","OBJECT_ID":"1999-025WJ","EPOCH":"2026-04-05T00:59:18.292416","MEAN_MOTION":14.15272845,"ECCENTRICITY":0.01005208,"INCLINATION":98.6471,"RA_OF_ASC_NODE":123.4777,"ARG_OF_PERICENTER":121.1204,"MEAN_ANOMALY":269.456,"EPHEMERIS_TYPE":0,"CLASSIFICATION_TYPE":"U","NORAD_CAT_ID":30225,"ELEMENT_SET_NO":999,"REV_AT_EPOCH":99139,"BSTAR":0.00020142994,"MEAN_MOTION_DOT":3.7e-6,"MEAN_MOTION_DDOT":0},{"OBJECT_NAME":"FENGYUN 1C DEB","OBJECT_ID":"1999-025WN","EPOCH":"2026-04-05T18:58:14.736576","MEAN_MOTION":14.62894198,"ECCENTRICITY":0.0036117,"INCLINATION":99.0468,"RA_OF_ASC_NODE":171.2036,"ARG_OF_PERICENTER":54.6085,"MEAN_ANOMALY":69.7757,"EPHEMERIS_TYPE":0,"CLASSIFICATION_TYPE":"U","NORAD_CAT_ID":30229,"ELEMENT_SET_NO":999,"REV_AT_EPOCH":582,"BSTAR":0.001586,"MEAN_MOTION_DOT":8.138e-5,"MEAN_MOTION_DDOT":0},{"OBJECT_NAME":"FENGYUN 1C DEB","OBJECT_ID":"1999-025WQ","EPOCH":"2026-04-05T16:00:28.817280","MEAN_MOTION":14.11958291,"ECCENTRICITY":0.012873,"INCLINATION":98.7857,"RA_OF_ASC_NODE":143.2613,"ARG_OF_PERICENTER":65.9501,"MEAN_ANOMALY":52.8344,"EPHEMERIS_TYPE":0,"CLASSIFICATION_TYPE":"U","NORAD_CAT_ID":30231,"ELEMENT_SET_NO":999,"REV_AT_EPOCH":98627,"BSTAR":0.00075516,"MEAN_MOTION_DOT":1.451e-5,"MEAN_MOTION_DDOT":0},{"OBJECT_NAME":"FENGYUN 1C DEB","OBJECT_ID":"1999-025WR","EPOCH":"2026-04-05T03:45:29.411424","MEAN_MOTION":14.64765799,"ECCENTRICITY":0.01334114,"INCLINATION":98.6877,"RA_OF_ASC_NODE":306.6233,"ARG_OF_PERICENTER":358.5582,"MEAN_ANOMALY":128.0755,"EPHEMERIS_TYPE":0,"CLASSIFICATION_TYPE":"U","NORAD_CAT_ID":30232,"ELEMENT_SET_NO":999,"REV_AT_EPOCH":1408,"BSTAR":0.00066263337,"MEAN_MOTION_DOT":3.965e-5,"MEAN_MOTION_DDOT":0},{"OBJECT_NAME":"FENGYUN 1C DEB","OBJECT_ID":"1999-025WT","EPOCH":"2026-04-05T18:58:39.979200","MEAN_MOTION":14.17043683,"ECCENTRICITY":0.0067223,"INCLINATION":98.6317,"RA_OF_ASC_NODE":108.2428,"ARG_OF_PERICENTER":107.0094,"MEAN_ANOMALY":75.9887,"EPHEMERIS_TYPE":0,"CLASSIFICATION_TYPE":"U","NORAD_CAT_ID":30234,"ELEMENT_SET_NO":999,"REV_AT_EPOCH":99071,"BSTAR":0.00040354,"MEAN_MOTION_DOT":7.88e-6,"MEAN_MOTION_DDOT":0},{"OBJECT_NAME":"FENGYUN 1C DEB","OBJECT_ID":"1999-025WU","EPOCH":"2026-04-05T19:31:28.407936","MEAN_MOTION":14.08961861,"ECCENTRICITY":0.0152611,"INCLINATION":98.742,"RA_OF_ASC_NODE":115.6524,"ARG_OF_PERICENTER":276.2282,"MEAN_ANOMALY":266.7396,"EPHEMERIS_TYPE":0,"CLASSIFICATION_TYPE":"U","NORAD_CAT_ID":30235,"ELEMENT_SET_NO":999,"REV_AT_EPOCH":98499,"BSTAR":0.00040981,"MEAN_MOTION_DOT":7.45e-6,"MEAN_MOTION_DDOT":0},{"OBJECT_NAME":"FENGYUN 1C DEB","OBJECT_ID":"1999-025WW","EPOCH":"2026-04-05T20:08:06.151776","MEAN_MOTION":14.42881297,"ECCENTRICITY":0.0012014,"INCLINATION":98.8236,"RA_OF_ASC_NODE":207.3964,"ARG_OF_PERICENTER":330.9936,"MEAN_ANOMALY":152.8042,"EPHEMERIS_TYPE":0,"CLASSIFICATION_TYPE":"U","NORAD_CAT_ID":30237,"ELEMENT_SET_NO":999,"REV_AT_EPOCH":99342,"BSTAR":0.0022558,"MEAN_MOTION_DOT":7.502e-5,"MEAN_MOTION_DDOT":0},{"OBJECT_NAME":"FENGYUN 1C DEB","OBJECT_ID":"1999-025WY","EPOCH":"2026-04-05T18:40:09.969024","MEAN_MOTION":11.42250013,"ECCENTRICITY":0.1472242,"INCLINATION":99.4773,"RA_OF_ASC_NODE":211.6468,"ARG_OF_PERICENTER":190.9418,"MEAN_ANOMALY":165.5971,"EPHEMERIS_TYPE":0,"CLASSIFICATION_TYPE":"U","NORAD_CAT_ID":30239,"ELEMENT_SET_NO":999,"REV_AT_EPOCH":55834,"BSTAR":0.034105,"MEAN_MOTION_DOT":0.00020348,"MEAN_MOTION_DDOT":0},{"OBJECT_NAME":"FENGYUN 1C DEB","OBJECT_ID":"1999-025XA","EPOCH":"2026-04-05T07:46:03.776448","MEAN_MOTION":14.09702464,"ECCENTRICITY":0.0147204,"INCLINATION":99.1628,"RA_OF_ASC_NODE":235.1437,"ARG_OF_PERICENTER":123.4186,"MEAN_ANOMALY":268.6712,"EPHEMERIS_TYPE":0,"CLASSIFICATION_TYPE":"U","NORAD_CAT_ID":30241,"ELEMENT_SET_NO":999,"REV_AT_EPOCH":98512,"BSTAR":0.00061668,"MEAN_MOTION_DOT":1.151e-5,"MEAN_MOTION_DDOT":0}]
